HULIANWANG DIGUI 12F    
1 66000U 25231F   25295.22284100 -.00000109  00000+0  26552-4 0  9991
2 66000  50.0046 332.6906 0005351 281.8564  78.1741 14.05806051   879
HULIANWANG DIGUI 12G    
1 66001U 25231G   25295.15133593 -.00000106  00000+0  28294-4 0  9995
2 66001  50.0043 332.9694 0006851 300.9308  59.0924 14.05924732   866
HULIANWANG DIGUI 12H    
1 66002U 25231H   25295.22232684 -.00000107  00000+0  27389-4 0  9990
2 66002  50.0064 332.6842 0007593 293.9919  66.0191 14.05944363   872
HULIANWANG DIGUI 12J    
1 66003U 25231J   25295.15048600 -.00000104  00000+0  29144-4 0  9994
2 66003  50.0049 332.9687 0005608 292.9024  67.1289 14.06120793   860
CZ-8A R/B               
1 66004U 25231K   25295.18960042 -.00000100  00000+0  23671-4 0  9996
2 66004  50.0048 331.8003 0116749 105.6422 255.7412 14.30029447   887
STARLINK-35336          
1 66006U 25232B   25294.66670139 -.01162942  42651-3 -25109-2 0  9999
2 66006  53.1568  36.9188 0000813  50.5408 161.0054 15.97777719  2040
STARLINK-35196          
1 66007U 25232C   25294.66670139 -.01170675  43207-3 -25153-2 0  9999
2 66007  53.1570  36.9165 0000781  51.7195 160.9599 15.97866852  2048
STARLINK-35236          
1 66008U 25232D   25294.66670139 -.01193649  44816-3 -25485-2 0  9991
2 66008  53.1565  36.9134 0000596  53.6308 160.3783 15.97984817  1983
STARLINK-35276          
1 66009U 25232E   25294.66670139 -.01214264  46297-3 -25739-2 0  9996
2 66009  53.1565  36.9107 0000566  69.5935 145.8735 15.98117241  1933
STARLINK-35297          
1 66010U 25232F   25294.66670139 -.01233481  47690-3 -26003-2 0  9993
2 66010  53.1567  36.9080 0000602  53.0292 163.6497 15.98219347  1889
STARLINK-35256          
1 66011U 25232G   25294.66670139 -.01297973  52553-3 -26759-2 0  9992
2 66011  53.1568  36.8978 0000829  55.0817 166.5035 15.98628088  2047
STARLINK-35293          
1 66012U 25232H   25294.66670139 -.01249947  48912-3 -26190-2 0  9994
2 66012  53.1566  36.9052 0000850  60.0604 157.9258 15.98330837  2047
STARLINK-35307          
1 66013U 25232J   25294.66670139 -.01273775  50682-3 -26531-2 0  9997
2 66013  53.1568  36.9027 0000490  62.8864 156.3430 15.98441468  2048
STARLINK-35395          
1 66014U 25232K   25294.66670139 -.01280770  51231-3 -26565-2 0  9999
2 66014  53.1566  36.9004 0000627  58.9330 161.3567 15.98517412  2048
STARLINK-34622          
1 66015U 25232L   25294.66670139 -.01344423  56223-3 -27235-2 0  9997
2 66015  53.1568  36.8894 0000398  38.8431 186.7642 15.98947450  2034
STARLINK-35243          
1 66016U 25232M   25294.66670139 -.01348012  56438-3 -27459-2 0  9992
2 66016  53.1566  36.8921 0000525  49.2438 174.9858 15.98850091  2042
STARLINK-35398          
1 66017U 25232N   25294.66670139 -.01409426  61446-3 -28178-2 0  9994
2 66017  53.1567  36.8837 0000489  45.2204 183.0065 15.99191705  2048
STARLINK-35376          
1 66018U 25232P   25294.66670139 -.01392629  60054-3 -27985-2 0  9990
2 66018  53.1568  36.8859 0000464  43.7731 183.3167 15.99098243  2044
STARLINK-35382          
1 66019U 25232Q   25294.66670139 -.01330474  55040-3 -27271-2 0  9998
2 66019  53.1570  36.8946 0000547  52.6091 170.2673 15.98736577  2040
STARLINK-35430          
1 66020U 25232R   25294.66670139 -.01429342  63164-3 -28296-2 0  9997
2 66020  53.1564  36.8787 0000466  44.1178 186.3992 15.99368809  1984
STARLINK-35432          
1 66021U 25232S   25294.66670139 -.01412816  61758-3 -28147-2 0  9998
2 66021  53.1563  36.8814 0000443  43.2705 185.8748 15.99253882  2041
STARLINK-35340          
1 66022U 25232T   25294.66670139 -.01427938  63099-3 -28152-2 0  9996
2 66022  53.1567  36.8762 0000782  49.8489 181.7202 15.99440722  2046
STARLINK-35394          
1 66023U 25232U   25294.66670139 -.01442723  64366-3 -28292-2 0  9999
2 66023  53.1565  36.8737 0000772  51.4877 181.2584 15.99536866  2049
STARLINK-35410          
1 66024U 25232V   25294.66670139 -.01461089  66013-3 -28342-2 0  9993
2 66024  53.1566  36.8687 0000689  48.9796 186.2322 15.99731405  2044
STARLINK-35280          
1 66025U 25232W   25294.66670139 -.01447788  64832-3 -28276-2 0  9997
2 66025  53.1564  36.8714 0000760  53.2805 180.4761 15.99609652  2045
STARLINK-34812          
1 66026U 25232X   25294.66670139 -.01443439  64603-3 -27898-2 0  9992
2 66026  53.1567  36.8664 0000338  32.1364 204.1803 15.99792425  2031
STARLINK-35341          
1 66027U 25232Y   25294.66670139 -.01488261  68439-3 -28527-2 0  9996
2 66027  53.1565  36.8633 0000673  46.2177 191.5876 15.99944438  2049
STARLINK-35339          
1 66028U 25232Z   25294.66670139 -.01499064  69433-3 -28565-2 0  9997
2 66028  53.1566  36.8605 0000473  39.3069 199.7787 16.00049670  2049
STARLINK-35399          
1 66029U 25232AA  25294.66670139 -.01506411  70139-3 -28535-2 0  9995
2 66029  53.1566  36.8579 0000429  51.3858 189.0028 16.00154928  2044
STARLINK-35431          
1 66030U 25232AB  25294.66670139 -.01508808  70427-3 -28404-2 0  9994
2 66030  53.1562  36.8548 0000536  44.6471 197.1318 16.00262702  2045
STARLINK-35326          
1 66031U 25232AC  25294.66670139 -.01492773  69115-3 -27979-2 0  9996
2 66031  53.1567  36.8527 0000453  73.8483 169.0996 16.00336850  2049
STARLINK-35311          
1 66032U 25232AD  25294.66670139 -.01526866  72149-3 -28404-2 0  9993
2 66032  53.1564  36.8497 0000423  41.6209 202.7288 16.00472909  2044
2025-234A               
1 66053U 25234A   25295.15098017  .00034225  00000+0  15146-2 0  9994
2 66053  97.4635   0.8002 0014276 277.2727  82.6886 15.21496613   466
2025-234B               
1 66054U 25234B   25295.15129536  .00009340  00000+0  41987-3 0  9999
2 66054  97.5063   0.8103 0014630 274.4023  85.5541 15.21256808   467
2025-234C               
1 66055U 25234C   25295.15150200  .00007522  00000+0  33993-3 0  9990
2 66055  97.4585   0.7983 0014229 273.3712  86.5896 15.21148630   465
2025-234D               
1 66056U 25234D   25295.15162308  .00024309  00000+0  10894-2 0  9999
2 66056  97.4562   0.7978 0014334 271.1529  88.8064 15.21138671   459
2025-234E               
1 66057U 25234E   25293.17857359 -.00000072  00000+0  00000+0 0  9994
2 66057  97.5180 358.8704 0019153 274.5220  85.3827 15.20597807   166
